0 THOR ABLESTAR DEB
1 02701U 65048E   13283.12967355  .00000229  00000-0  28399-3 0  9759
2 02701 089.9825 320.6583 0060976 248.1252 166.3388 13.61659904390889
0 THOR ABLESTAR DEB
1 02701U 65048E   13285.86335797  .00000252  00000-0  31280-3 0  9761
2 02701 089.9818 320.6534 0061199 239.8946 246.9665 13.61660943391252
0 THOR ABLESTAR DEB
1 02701U 65048E   13288.04778907  .00000309  00000-0  38650-3 0  9770
2 02701 089.9812 320.6494 0061384 233.3684 155.0896 13.61662587391550
0 THOR ABLESTAR DEB
1 02701U 65048E   13290.11074876  .00000252  00000-0  31298-3 0  9784
2 02701 089.9809 320.6453 0061562 227.2040 187.7696 13.61663884391839
0 THOR ABLESTAR DEB
1 02701U 65048E   13293.04496497  .00000286  00000-0  35695-3 0  9799
2 02701 089.9809 320.6392 0061819 218.4482 171.3780 13.61665528392233
0 THOR ABLESTAR DEB
1 02701U 65048E   13295.10894081  .00000306  00000-0  38262-3 0  9807
2 02701 089.9809 320.6350 0062020 212.3134 209.0309 13.61666819392510
